ONEWEB-0564             
1 55801U 23029F   25223.28937990  .00000084  00000+0  17572-3 0  9992
2 55801  87.9290 336.2281 0002154 108.8527 251.2840 13.20772825120242
ONEWEB-0638             
1 55802U 23029G   25223.28921798 -.00000003  00000+0 -42435-4 0  9992
2 55802  87.9085 351.4399 0002371 100.6688 259.4709 13.14503653118686
ONEWEB-0639             
1 55803U 23029H   25223.09285823 -.00000067  00000+0 -19863-3 0  9992
2 55803  87.9251   6.6296 0002128  62.9848 297.1502 13.19724920118008
ONEWEB-0640             
1 55804U 23029J   25222.84201232 -.00000150  00000+0 -43866-3 0  9990
2 55804  87.9083 351.5154 0002549  91.6217 268.5205 13.14500872119324
ONEWEB-0641             
1 55805U 23029K   25223.16393879 -.00000075  00000+0 -21991-3 0  9997
2 55805  87.9253   6.5870 0001844  88.7976 271.3368 13.19725224118025
ONEWEB-0642             
1 55806U 23029L   25223.15920334 -.00000027  00000+0 -99590-4 0  9997
2 55806  87.9245   6.6245 0001746  65.8078 294.3237 13.19726360118015
ONEWEB-0643             
1 55807U 23029M   25223.11635975  .00000225  00000+0  57153-3 0  9994
2 55807  87.9084 351.4439 0001407  76.5558 283.5728 13.14501634118654
ONEWEB-0644             
1 55808U 23029N   25222.92700900 -.00000054  00000+0 -16741-3 0  9994
2 55808  87.9251   6.6769 0001743  79.4831 280.6498 13.19726365117987
ONEWEB-0645             
1 55809U 23029P   25223.15051804  .00000001  00000+0 -28920-4 0  9997
2 55809  87.9236   6.6227 0002066  88.7447 271.3923 13.19725190118015
ONEWEB-0646             
1 55810U 23029Q   25223.10572555 -.00006239  00000+0 -15728-1 0  9994
2 55810  87.9236   6.6234 0001673  92.1042 268.0282 13.19285659117996
ONEWEB-0648             
1 55811U 23029R   25223.08466371 -.00000230  00000+0 -65474-3 0  9990
2 55811  87.9073 351.4250 0002219  72.4645 287.6727 13.14501461118654
ONEWEB-0649             
1 55812U 23029S   25223.21922471 -.00000029  00000+0 -10420-3 0  9991
2 55812  87.9247   6.5950 0001971  81.6542 278.4814 13.19724131118735
ONEWEB-0650             
1 55813U 23029T   25223.21448524 -.00000017  00000+0 -74255-4 0  9998
2 55813  87.9249   6.6068 0001784  89.4926 270.6411 13.19723957118016
ONEWEB-0652             
1 55814U 23029U   25223.29396119 -.00000008  00000+0 -54984-4 0  9996
2 55814  87.9085 351.3944 0001848 103.1303 257.0033 13.14501183118651
ONEWEB-0653             
1 55815U 23029V   25223.27812371  .00000205  00000+0  51914-3 0  9994
2 55815  87.9079 351.3872 0002049 101.3058 258.8302 13.14502764118683
ONEWEB-0654             
1 55816U 23029W   25223.12112476  .00000231  00000+0  58769-3 0  9992
2 55816  87.9076 351.4172 0001994 109.6441 250.4904 13.14502561118681
ONEWEB-0656             
1 55817U 23029X   25223.05578929  .00000022  00000+0  21557-4 0  9998
2 55817  87.9300 336.2189 0002098 112.0926 248.0430 13.20770726120219
