[{"OBJECT_NAME":"ONEWEB-0564","OBJECT_ID":"2023-029F","EPOCH":"2025-08-11T06:56:42.423360","MEAN_MOTION":13.20772825,"ECCENTRICITY":0.0002154,"INCLINATION":87.929,"RA_OF_ASC_NODE":336.2281,"ARG_OF_PERICENTER":108.8527,"MEAN_ANOMALY":251.284,"EPHEMERIS_TYPE":0,"CLASSIFICATION_TYPE":"U","NORAD_CAT_ID":55801,"ELEMENT_SET_NO":999,"REV_AT_EPOCH":12024,"BSTAR":0.00017572,"MEAN_MOTION_DOT":8.4e-7,"MEAN_MOTION_DDOT":0},{"OBJECT_NAME":"ONEWEB-0638","OBJECT_ID":"2023-029G","EPOCH":"2025-08-11T06:56:28.433472","MEAN_MOTION":13.14503653,"ECCENTRICITY":0.0002371,"INCLINATION":87.9085,"RA_OF_ASC_NODE":351.4399,"ARG_OF_PERICENTER":100.6688,"MEAN_ANOMALY":259.4709,"EPHEMERIS_TYPE":0,"CLASSIFICATION_TYPE":"U","NORAD_CAT_ID":55802,"ELEMENT_SET_NO":999,"REV_AT_EPOCH":11868,"BSTAR":-4.2435e-5,"MEAN_MOTION_DOT":-3.0e-8,"MEAN_MOTION_DDOT":0},{"OBJECT_NAME":"ONEWEB-0639","OBJECT_ID":"2023-029H","EPOCH":"2025-08-11T02:13:42.951072","MEAN_MOTION":13.1972492,"ECCENTRICITY":0.0002128,"INCLINATION":87.9251,"RA_OF_ASC_NODE":6.6296,"ARG_OF_PERICENTER":62.9848,"MEAN_ANOMALY":297.1502,"EPHEMERIS_TYPE":0,"CLASSIFICATION_TYPE":"U","NORAD_CAT_ID":55803,"ELEMENT_SET_NO":999,"REV_AT_EPOCH":11800,"BSTAR":-0.00019863,"MEAN_MOTION_DOT":-6.7e-7,"MEAN_MOTION_DDOT":0},{"OBJECT_NAME":"ONEWEB-0640","OBJECT_ID":"2023-029J","EPOCH":"2025-08-10T20:12:29.864448","MEAN_MOTION":13.14500872,"ECCENTRICITY":0.0002549,"INCLINATION":87.9083,"RA_OF_ASC_NODE":351.5154,"ARG_OF_PERICENTER":91.6217,"MEAN_ANOMALY":268.5205,"EPHEMERIS_TYPE":0,"CLASSIFICATION_TYPE":"U","NORAD_CAT_ID":55804,"ELEMENT_SET_NO":999,"REV_AT_EPOCH":11932,"BSTAR":-0.00043866,"MEAN_MOTION_DOT":-1.5e-6,"MEAN_MOTION_DDOT":0},{"OBJECT_NAME":"ONEWEB-0641","OBJECT_ID":"2023-029K","EPOCH":"2025-08-11T03:56:04.311456","MEAN_MOTION":13.19725224,"ECCENTRICITY":0.0001844,"INCLINATION":87.9253,"RA_OF_ASC_NODE":6.587,"ARG_OF_PERICENTER":88.7976,"MEAN_ANOMALY":271.3368,"EPHEMERIS_TYPE":0,"CLASSIFICATION_TYPE":"U","NORAD_CAT_ID":55805,"ELEMENT_SET_NO":999,"REV_AT_EPOCH":11802,"BSTAR":-0.00021991,"MEAN_MOTION_DOT":-7.5e-7,"MEAN_MOTION_DDOT":0},{"OBJECT_NAME":"ONEWEB-0642","OBJECT_ID":"2023-029L","EPOCH":"2025-08-11T03:49:15.168576","MEAN_MOTION":13.1972636,"ECCENTRICITY":0.0001746,"INCLINATION":87.9245,"RA_OF_ASC_NODE":6.6245,"ARG_OF_PERICENTER":65.8078,"MEAN_ANOMALY":294.3237,"EPHEMERIS_TYPE":0,"CLASSIFICATION_TYPE":"U","NORAD_CAT_ID":55806,"ELEMENT_SET_NO":999,"REV_AT_EPOCH":11801,"BSTAR":-9.959e-5,"MEAN_MOTION_DOT":-2.7e-7,"MEAN_MOTION_DDOT":0},{"OBJECT_NAME":"ONEWEB-0643","OBJECT_ID":"2023-029M","EPOCH":"2025-08-11T02:47:33.482400","MEAN_MOTION":13.14501634,"ECCENTRICITY":0.0001407,"INCLINATION":87.9084,"RA_OF_ASC_NODE":351.4439,"ARG_OF_PERICENTER":76.5558,"MEAN_ANOMALY":283.5728,"EPHEMERIS_TYPE":0,"CLASSIFICATION_TYPE":"U","NORAD_CAT_ID":55807,"ELEMENT_SET_NO":999,"REV_AT_EPOCH":11865,"BSTAR":0.00057153,"MEAN_MOTION_DOT":2.25e-6,"MEAN_MOTION_DDOT":0},{"OBJECT_NAME":"ONEWEB-0644","OBJECT_ID":"2023-029N","EPOCH":"2025-08-10T22:14:53.577600","MEAN_MOTION":13.19726365,"ECCENTRICITY":0.0001743,"INCLINATION":87.9251,"RA_OF_ASC_NODE":6.6769,"ARG_OF_PERICENTER":79.4831,"MEAN_ANOMALY":280.6498,"EPHEMERIS_TYPE":0,"CLASSIFICATION_TYPE":"U","NORAD_CAT_ID":55808,"ELEMENT_SET_NO":999,"REV_AT_EPOCH":11798,"BSTAR":-0.00016741,"MEAN_MOTION_DOT":-5.4e-7,"MEAN_MOTION_DDOT":0},{"OBJECT_NAME":"ONEWEB-0645","OBJECT_ID":"2023-029P","EPOCH":"2025-08-11T03:36:44.758656","MEAN_MOTION":13.1972519,"ECCENTRICITY":0.0002066,"INCLINATION":87.9236,"RA_OF_ASC_NODE":6.6227,"ARG_OF_PERICENTER":88.7447,"MEAN_ANOMALY":271.3923,"EPHEMERIS_TYPE":0,"CLASSIFICATION_TYPE":"U","NORAD_CAT_ID":55809,"ELEMENT_SET_NO":999,"REV_AT_EPOCH":11801,"BSTAR":-2.892e-5,"MEAN_MOTION_DOT":1.0e-8,"MEAN_MOTION_DDOT":0},{"OBJECT_NAME":"ONEWEB-0646","OBJECT_ID":"2023-029Q","EPOCH":"2025-08-11T02:32:14.687520","MEAN_MOTION":13.19285659,"ECCENTRICITY":0.0001673,"INCLINATION":87.9236,"RA_OF_ASC_NODE":6.6234,"ARG_OF_PERICENTER":92.1042,"MEAN_ANOMALY":268.0282,"EPHEMERIS_TYPE":0,"CLASSIFICATION_TYPE":"U","NORAD_CAT_ID":55810,"ELEMENT_SET_NO":999,"REV_AT_EPOCH":11799,"BSTAR":-0.015728,"MEAN_MOTION_DOT":-6.239e-5,"MEAN_MOTION_DDOT":0},{"OBJECT_NAME":"ONEWEB-0648","OBJECT_ID":"2023-029R","EPOCH":"2025-08-11T02:01:54.944544","MEAN_MOTION":13.14501461,"ECCENTRICITY":0.0002219,"INCLINATION":87.9073,"RA_OF_ASC_NODE":351.425,"ARG_OF_PERICENTER":72.4645,"MEAN_ANOMALY":287.6727,"EPHEMERIS_TYPE":0,"CLASSIFICATION_TYPE":"U","NORAD_CAT_ID":55811,"ELEMENT_SET_NO":999,"REV_AT_EPOCH":11865,"BSTAR":-0.00065474,"MEAN_MOTION_DOT":-2.3e-6,"MEAN_MOTION_DDOT":0},{"OBJECT_NAME":"ONEWEB-0649","OBJECT_ID":"2023-029S","EPOCH":"2025-08-11T05:15:41.014944","MEAN_MOTION":13.19724131,"ECCENTRICITY":0.0001971,"INCLINATION":87.9247,"RA_OF_ASC_NODE":6.595,"ARG_OF_PERICENTER":81.6542,"MEAN_ANOMALY":278.4814,"EPHEMERIS_TYPE":0,"CLASSIFICATION_TYPE":"U","NORAD_CAT_ID":55812,"ELEMENT_SET_NO":999,"REV_AT_EPOCH":11873,"BSTAR":-0.0001042,"MEAN_MOTION_DOT":-2.9e-7,"MEAN_MOTION_DDOT":0},{"OBJECT_NAME":"ONEWEB-0650","OBJECT_ID":"2023-029T","EPOCH":"2025-08-11T05:08:51.524736","MEAN_MOTION":13.19723957,"ECCENTRICITY":0.0001784,"INCLINATION":87.9249,"RA_OF_ASC_NODE":6.6068,"ARG_OF_PERICENTER":89.4926,"MEAN_ANOMALY":270.6411,"EPHEMERIS_TYPE":0,"CLASSIFICATION_TYPE":"U","NORAD_CAT_ID":55813,"ELEMENT_SET_NO":999,"REV_AT_EPOCH":11801,"BSTAR":-7.4255e-5,"MEAN_MOTION_DOT":-1.7e-7,"MEAN_MOTION_DDOT":0},{"OBJECT_NAME":"ONEWEB-0652","OBJECT_ID":"2023-029U","EPOCH":"2025-08-11T07:03:18.246816","MEAN_MOTION":13.14501183,"ECCENTRICITY":0.0001848,"INCLINATION":87.9085,"RA_OF_ASC_NODE":351.3944,"ARG_OF_PERICENTER":103.1303,"MEAN_ANOMALY":257.0033,"EPHEMERIS_TYPE":0,"CLASSIFICATION_TYPE":"U","NORAD_CAT_ID":55814,"ELEMENT_SET_NO":999,"REV_AT_EPOCH":11865,"BSTAR":-5.4984e-5,"MEAN_MOTION_DOT":-8.0e-8,"MEAN_MOTION_DDOT":0},{"OBJECT_NAME":"ONEWEB-0653","OBJECT_ID":"2023-029V","EPOCH":"2025-08-11T06:40:29.888544","MEAN_MOTION":13.14502764,"ECCENTRICITY":0.0002049,"INCLINATION":87.9079,"RA_OF_ASC_NODE":351.3872,"ARG_OF_PERICENTER":101.3058,"MEAN_ANOMALY":258.8302,"EPHEMERIS_TYPE":0,"CLASSIFICATION_TYPE":"U","NORAD_CAT_ID":55815,"ELEMENT_SET_NO":999,"REV_AT_EPOCH":11868,"BSTAR":0.00051914,"MEAN_MOTION_DOT":2.05e-6,"MEAN_MOTION_DDOT":0},{"OBJECT_NAME":"ONEWEB-0654","OBJECT_ID":"2023-029W","EPOCH":"2025-08-11T02:54:25.179264","MEAN_MOTION":13.14502561,"ECCENTRICITY":0.0001994,"INCLINATION":87.9076,"RA_OF_ASC_NODE":351.4172,"ARG_OF_PERICENTER":109.6441,"MEAN_ANOMALY":250.4904,"EPHEMERIS_TYPE":0,"CLASSIFICATION_TYPE":"U","NORAD_CAT_ID":55816,"ELEMENT_SET_NO":999,"REV_AT_EPOCH":11868,"BSTAR":0.00058769,"MEAN_MOTION_DOT":2.31e-6,"MEAN_MOTION_DDOT":0},{"OBJECT_NAME":"ONEWEB-0656","OBJECT_ID":"2023-029X","EPOCH":"2025-08-11T01:20:20.194656","MEAN_MOTION":13.20770726,"ECCENTRICITY":0.0002098,"INCLINATION":87.93,"RA_OF_ASC_NODE":336.2189,"ARG_OF_PERICENTER":112.0926,"MEAN_ANOMALY":248.043,"EPHEMERIS_TYPE":0,"CLASSIFICATION_TYPE":"U","NORAD_CAT_ID":55817,"ELEMENT_SET_NO":999,"REV_AT_EPOCH":12021,"BSTAR":2.1557e-5,"MEAN_MOTION_DOT":2.2e-7,"MEAN_MOTION_DDOT":0}]
